0 COSMOS 1092
1 11326U 79030A   13281.86764186  .00000055  00000-0  41105-4 0  1451
2 11326 082.9488 238.2298 0030728 080.0190 335.1407 13.75232335965586
0 COSMOS 1092
1 11326U 79030A   13283.19204016  .00000043  00000-0  28489-4 0  1468
2 11326 082.9490 237.2492 0030684 076.4740 051.8680 13.75232637965765
0 COSMOS 1092
1 11326U 79030A   13285.94306669  .00000033  00000-0  18347-4 0  1483
2 11326 082.9495 235.2121 0030616 069.0952 351.4531 13.75233058966140
0 COSMOS 1092
1 11326U 79030A   13286.96254132  .00000045  00000-0  31061-4 0  1495
2 11326 082.9498 234.4572 0030570 066.3566 358.6009 13.75233136966285
0 COSMOS 1092
1 11326U 79030A   13287.98220579  .00000065  00000-0  51991-4 0  1504
2 11326 082.9501 233.7022 0030522 063.6113 006.6951 13.75233135966428
0 COSMOS 1092
1 11326U 79030A   13289.45131395  .00000075  00000-0  62255-4 0  1512
2 11326 082.9503 232.6146 0030450 059.6411 079.8836 13.75233234966627
0 COSMOS 1092
1 11326U 79030A   13290.46957355  .00000091  00000-0  78528-4 0  1526
2 11326 082.9504 231.8608 0030404 056.8907 081.0321 13.75233287966767
0 COSMOS 1092
1 11326U 79030A   13292.21123387  .00000105  00000-0  93615-4 0  1532
2 11326 082.9504 230.5716 0030333 052.2083 063.5352 13.75233381967001
0 COSMOS 1092
1 11326U 79030A   13293.45272169  .00000099  00000-0  87024-4 0  1542
2 11326 082.9504 229.6526 0030267 048.8355 089.8501 13.75233700967178
0 COSMOS 1092
1 11326U 79030A   13294.81292855  .00000098  00000-0  85867-4 0  1550
2 11326 082.9504 228.6458 0030201 045.1781 343.8787 13.75233995967368
0 COSMOS 1092
1 11326U 79030A   13295.83622727  .00000086  00000-0  73774-4 0  1560
2 11326 082.9505 227.8883 0030109 042.3477 010.0426 13.75234283967500
